{
  "type": "FeatureCollection",
  "features": [
    {
      "type": "Feature",
      "properties": {
        "norad_id": 64751,
        "name": "PROGRESS-MS 31",
        "group": "stations",
        "lat": -3.2936805566169927,
        "lon": -74.32792451079779,
        "alt_km": 418.9058030020051,
        "timestamp": "2025-12-20T16:47:35.053263+00:00",
        "meta_object_name": "PROGRESS-MS 31",
        "meta_object_id": "2025-146A",
        "meta_epoch": "2025-12-20T05:10:04.568160",
        "meta_mean_motion": 15.49679666,
        "meta_eccentricity": 0.00031985,
        "meta_inclination": 51.6321,
        "meta_ra_of_asc_node": 105.4589,
        "meta_arg_of_pericenter": 275.1086,
        "meta_mean_anomaly": 84.9538,
        "meta_ephemeris_type": 0,
        "meta_classification_type": "U",
        "meta_norad_cat_id": 64751,
        "meta_element_set_no": 999,
        "meta_rev_at_epoch": 675,
        "meta_bstar": 0.00013176766,
        "meta_mean_motion_dot": 6.989e-05,
        "meta_mean_motion_ddot": 0,
        "tle_line1": "1 64751U 25146A   25354.21533065  .00006989  00000+0  13177-3 0  9998",
        "tle_line2": "2 64751  51.6321 105.4589 0003198 275.1086  84.9538 15.49679666  6759"
      },
      "geometry": {
        "type": "Point",
        "coordinates": [
          -74.32792451079779,
          -3.2936805566169927
        ]
      }
    },
    {
      "type": "Feature",
      "properties": {
        "norad_id": 64786,
        "name": "TIANZHOU-9",
        "group": "stations",
        "lat": -36.48966944266019,
        "lon": -154.7434879073384,
        "alt_km": 396.1669108193155,
        "timestamp": "2025-12-20T16:47:35.053277+00:00",
        "meta_object_name": "TIANZHOU-9",
        "meta_object_id": "2025-149A",
        "meta_epoch": "2025-12-20T04:59:38.766912",
        "meta_mean_motion": 15.59496428,
        "meta_eccentricity": 0.00077465,
        "meta_inclination": 41.4685,
        "meta_ra_of_asc_node": 331.3573,
        "meta_arg_of_pericenter": 96.7908,
        "meta_mean_anomaly": 263.3812,
        "meta_ephemeris_type": 0,
        "meta_classification_type": "U",
        "meta_norad_cat_id": 64786,
        "meta_element_set_no": 999,
        "meta_rev_at_epoch": 25530,
        "meta_bstar": 0.00022776024,
        "meta_mean_motion_dot": 0.00018311,
        "meta_mean_motion_ddot": 0,
        "tle_line1": "1 64786U 25149A   25354.20808758  .00018311  00000+0  22776-3 0  9999",
        "tle_line2": "2 64786  41.4685 331.3573 0007746  96.7908 263.3812 15.59496428255302"
      },
      "geometry": {
        "type": "Point",
        "coordinates": [
          -154.7434879073384,
          -36.48966944266019
        ]
      }
    },
    {
      "type": "Feature",
      "properties": {
        "norad_id": 65077,
        "name": "CREW DRAGON 11",
        "group": "stations",
        "lat": -3.2936818214182337,
        "lon": -74.327923505834,
        "alt_km": 418.905803097472,
        "timestamp": "2025-12-20T16:47:35.053288+00:00",
        "meta_object_name": "CREW DRAGON 11",
        "meta_object_id": "2025-166A",
        "meta_epoch": "2025-12-20T05:10:04.568160",
        "meta_mean_motion": 15.49679666,
        "meta_eccentricity": 0.00031985,
        "meta_inclination": 51.6321,
        "meta_ra_of_asc_node": 105.4589,
        "meta_arg_of_pericenter": 275.1086,
        "meta_mean_anomaly": 84.9538,
        "meta_ephemeris_type": 0,
        "meta_classification_type": "U",
        "meta_norad_cat_id": 65077,
        "meta_element_set_no": 999,
        "meta_rev_at_epoch": 214,
        "meta_bstar": 0.00013176766,
        "meta_mean_motion_dot": 6.989e-05,
        "meta_mean_motion_ddot": 0,
        "tle_line1": "1 65077U 25166A   25354.21533065  .00006989  00000+0  13177-3 0  9992",
        "tle_line2": "2 65077  51.6321 105.4589 0003198 275.1086  84.9538 15.49679666  2140"
      },
      "geometry": {
        "type": "Point",
        "coordinates": [
          -74.327923505834,
          -3.2936818214182337
        ]
      }
    },
    {
      "type": "Feature",
      "properties": {
        "norad_id": 65304,
        "name": "DRAGON CRS-33",
        "group": "stations",
        "lat": -3.293682327339445,
        "lon": -74.32792310384792,
        "alt_km": 418.90580313565533,
        "timestamp": "2025-12-20T16:47:35.053298+00:00",
        "meta_object_name": "DRAGON CRS-33",
        "meta_object_id": "2025-186A",
        "meta_epoch": "2025-12-20T05:10:04.568160",
        "meta_mean_motion": 15.49679666,
        "meta_eccentricity": 0.00031985,
        "meta_inclination": 51.6321,
        "meta_ra_of_asc_node": 105.4589,
        "meta_arg_of_pericenter": 275.1086,
        "meta_mean_anomaly": 84.9538,
        "meta_ephemeris_type": 0,
        "meta_classification_type": "U",
        "meta_norad_cat_id": 65304,
        "meta_element_set_no": 999,
        "meta_rev_at_epoch": 11,
        "meta_bstar": 0.00013176766,
        "meta_mean_motion_dot": 6.989e-05,
        "meta_mean_motion_ddot": 0,
        "tle_line1": "1 65304U 25186A   25354.21533065  .00006989  00000+0  13177-3 0  9997",
        "tle_line2": "2 65304  51.6321 105.4589 0003198 275.1086  84.9538 15.49679666   118"
      },
      "geometry": {
        "type": "Point",
        "coordinates": [
          -74.32792310384792,
          -3.293682327339445
        ]
      }
    },
    {
      "type": "Feature",
      "properties": {
        "norad_id": 65586,
        "name": "PROGRESS-MS 32",
        "group": "stations",
        "lat": -3.293682833259718,
        "lon": -74.32792270186259,
        "alt_km": 418.90580317383865,
        "timestamp": "2025-12-20T16:47:35.053308+00:00",
        "meta_object_name": "PROGRESS-MS 32",
        "meta_object_id": "2025-204A",
        "meta_epoch": "2025-12-20T05:10:04.568160",
        "meta_mean_motion": 15.49679666,
        "meta_eccentricity": 0.00031985,
        "meta_inclination": 51.6321,
        "meta_ra_of_asc_node": 105.4589,
        "meta_arg_of_pericenter": 275.1086,
        "meta_mean_anomaly": 84.9538,
        "meta_ephemeris_type": 0,
        "meta_classification_type": "U",
        "meta_norad_cat_id": 65586,
        "meta_element_set_no": 999,
        "meta_rev_at_epoch": 27,
        "meta_bstar": 0.00013176766,
        "meta_mean_motion_dot": 6.989e-05,
        "meta_mean_motion_ddot": 0,
        "tle_line1": "1 65586U 25204A   25354.21533065  .00006989  00000+0  13177-3 0  9990",
        "tle_line2": "2 65586  51.6321 105.4589 0003198 275.1086  84.9538 15.49679666   277"
      },
      "geometry": {
        "type": "Point",
        "coordinates": [
          -74.32792270186259,
          -3.293682833259718
        ]
      }
    },
    {
      "type": "Feature",
      "properties": {
        "norad_id": 65616,
        "name": "CYGNUS NG-23",
        "group": "stations",
        "lat": -3.2936833391799714,
        "lon": -74.32792229987727,
        "alt_km": 418.9058032120265,
        "timestamp": "2025-12-20T16:47:35.053318+00:00",
        "meta_object_name": "CYGNUS NG-23",
        "meta_object_id": "2025-208A",
        "meta_epoch": "2025-12-20T05:10:04.568160",
        "meta_mean_motion": 15.49679666,
        "meta_eccentricity": 0.00031985,
        "meta_inclination": 51.6321,
        "meta_ra_of_asc_node": 105.4589,
        "meta_arg_of_pericenter": 275.1086,
        "meta_mean_anomaly": 84.9538,
        "meta_ephemeris_type": 0,
        "meta_classification_type": "U",
        "meta_norad_cat_id": 65616,
        "meta_element_set_no": 999,
        "meta_rev_at_epoch": 22,
        "meta_bstar": 0.00013176766,
        "meta_mean_motion_dot": 6.989e-05,
        "meta_mean_motion_ddot": 0,
        "tle_line1": "1 65616U 25208A   25354.21533065  .00006989  00000+0  13177-3 0  9998",
        "tle_line2": "2 65616  51.6321 105.4589 0003198 275.1086  84.9538 15.49679666   226"
      },
      "geometry": {
        "type": "Point",
        "coordinates": [
          -74.32792229987727,
          -3.2936833391799714
        ]
      }
    },
    {
      "type": "Feature",
      "properties": {
        "norad_id": 65729,
        "name": "DRAGONFLY",
        "group": "stations",
        "lat": 42.31142687775881,
        "lon": -131.24412239307696,
        "alt_km": 344.75032957034546,
        "timestamp": "2025-12-20T16:47:35.053329+00:00",
        "meta_object_name": "DRAGONFLY",
        "meta_object_id": "1998-067XH",
        "meta_epoch": "2025-12-20T11:42:45.438624",
        "meta_mean_motion": 15.74448787,
        "meta_eccentricity": 0.0007438,
        "meta_inclination": 51.6254,
        "meta_ra_of_asc_node": 96.0114,
        "meta_arg_of_pericenter": 325.9909,
        "meta_mean_anomaly": 34.0612,
        "meta_ephemeris_type": 0,
        "meta_classification_type": "U",
        "meta_norad_cat_id": 65729,
        "meta_element_set_no": 999,
        "meta_rev_at_epoch": 1438,
        "meta_bstar": 0.00098006,
        "meta_mean_motion_dot": 0.00147536,
        "meta_mean_motion_ddot": 0,
        "tle_line1": "1 65729U 98067XH  25354.48802591  .00147536  00000+0  98006-3 0  9996",
        "tle_line2": "2 65729  51.6254  96.0114 0007438 325.9909  34.0612 15.74448787 14381"
      },
      "geometry": {
        "type": "Point",
        "coordinates": [
          -131.24412239307696,
          42.31142687775881
        ]
      }
    }
  ]
}